STARLINK-32732          
1 62488U 25003B   25210.44550313  .00030991  00000+0  11304-2 0  9995
2 62488  43.0015 109.3576 0001942 281.2448  78.8185 15.27596232 32418
STARLINK-32328          
1 62489U 25003C   25210.10201701  .00026664  00000+0  97461-3 0  9994
2 62489  43.0010 111.9467 0001329 270.3770  89.6930 15.27592724 32474
STARLINK-32332          
1 62490U 25003D   25210.94046824  .00014672  00000+0  54132-3 0  9995
2 62490  42.9988 107.0580 0001370 266.9148  93.1547 15.27598464 32589
STARLINK-32717          
1 62491U 25003E   25210.00578974  .00028085  00000+0  10257-2 0  9991
2 62491  43.0005 112.0795 0001201 271.1884  88.8830 15.27596424 32461
STARLINK-32757          
1 62492U 25003F   25210.09687410  .00028625  00000+0  10451-2 0  9993
2 62492  43.0049 111.9043 0001575 287.7976  72.2703 15.27598550 32359
STARLINK-32731          
1 62493U 25003G   25210.43666133  .00009096  00000+0  33964-3 0  9997
2 62493  42.9978 110.1587 0000998 286.3042  73.7700 15.27581465 32529
STARLINK-32694          
1 62494U 25003H   25209.99551285  .00019562  00000+0  71827-3 0  9997
2 62494  43.0018 112.0013 0001226 302.3425  57.7308 15.27591437 32460
STARLINK-32708          
1 62495U 25003J   25210.41995514  .00028419  00000+0  10380-2 0  9991
2 62495  43.0049 110.0267 0001339 284.0784  75.9919 15.27588512 32407
STARLINK-32718          
1 62496U 25003K   25210.44935956  .00025328  00000+0  92662-3 0  9999
2 62496  43.0032 109.3871 0001576 267.4624  92.6048 15.27584643 32414
STARLINK-32729          
1 62497U 25003L   25210.06474816  .00023982  00000+0  87775-3 0  9994
2 62497  43.0003 111.6547 0001566 267.1435  92.9237 15.27595576 32471
STARLINK-32739          
1 62498U 25003M   25210.40708715  .00032896  00000+0  11996-2 0  9996
2 62498  42.9990 109.9252 0001062 285.1868  74.8866 15.27580356 32476
STARLINK-32714          
1 62499U 25003N   25210.43536990  .00027384  00000+0  10005-2 0  9990
2 62499  43.0009 110.1469 0001463 266.3926  93.6758 15.27594150 32527
STARLINK-32685          
1 62500U 25003P   25210.10073133  .00018331  00000+0  67376-3 0  9998
2 62500  43.0020 111.9351 0001371 278.9652  81.1044 15.27591674 32422
STARLINK-32691          
1 62501U 25003Q   25210.40580554  .00013037  00000+0  48273-3 0  9995
2 62501  42.9985 109.9133 0001535 275.4257  84.6419 15.27560777 32515
STARLINK-32788          
1 62502U 25003R   25210.00964370  .00030147  00000+0  11005-2 0  9997
2 62502  42.9995 112.1044 0001358 267.7020  92.3676 15.27581599 32346
STARLINK-32768          
1 62503U 25003S   25210.45063530  .00023488  00000+0  85948-3 0  9993
2 62503  43.0017 109.3898 0003386 264.5661  95.4804 15.27609613 32411
