[{"OBJECT_NAME":"STARLINK-32732","OBJECT_ID":"2025-003B","EPOCH":"2025-07-29T10:41:31.470432","MEAN_MOTION":15.27596232,"ECCENTRICITY":0.0001942,"INCLINATION":43.0015,"RA_OF_ASC_NODE":109.3576,"ARG_OF_PERICENTER":281.2448,"MEAN_ANOMALY":78.8185,"EPHEMERIS_TYPE":0,"CLASSIFICATION_TYPE":"U","NORAD_CAT_ID":62488,"ELEMENT_SET_NO":999,"REV_AT_EPOCH":3241,"BSTAR":0.0011304,"MEAN_MOTION_DOT":0.00030991,"MEAN_MOTION_DDOT":0},{"OBJECT_NAME":"STARLINK-32328","OBJECT_ID":"2025-003C","EPOCH":"2025-07-29T02:26:54.269664","MEAN_MOTION":15.27592724,"ECCENTRICITY":0.0001329,"INCLINATION":43.001,"RA_OF_ASC_NODE":111.9467,"ARG_OF_PERICENTER":270.377,"MEAN_ANOMALY":89.693,"EPHEMERIS_TYPE":0,"CLASSIFICATION_TYPE":"U","NORAD_CAT_ID":62489,"ELEMENT_SET_NO":999,"REV_AT_EPOCH":3247,"BSTAR":0.00097461,"MEAN_MOTION_DOT":0.00026664,"MEAN_MOTION_DDOT":0},{"OBJECT_NAME":"STARLINK-32332","OBJECT_ID":"2025-003D","EPOCH":"2025-07-29T22:34:16.455936","MEAN_MOTION":15.27598464,"ECCENTRICITY":0.000137,"INCLINATION":42.9988,"RA_OF_ASC_NODE":107.058,"ARG_OF_PERICENTER":266.9148,"MEAN_ANOMALY":93.1547,"EPHEMERIS_TYPE":0,"CLASSIFICATION_TYPE":"U","NORAD_CAT_ID":62490,"ELEMENT_SET_NO":999,"REV_AT_EPOCH":3258,"BSTAR":0.00054132,"MEAN_MOTION_DOT":0.00014672,"MEAN_MOTION_DDOT":0},{"OBJECT_NAME":"STARLINK-32717","OBJECT_ID":"2025-003E","EPOCH":"2025-07-29T00:08:20.233536","MEAN_MOTION":15.27596424,"ECCENTRICITY":0.0001201,"INCLINATION":43.0005,"RA_OF_ASC_NODE":112.0795,"ARG_OF_PERICENTER":271.1884,"MEAN_ANOMALY":88.883,"EPHEMERIS_TYPE":0,"CLASSIFICATION_TYPE":"U","NORAD_CAT_ID":62491,"ELEMENT_SET_NO":999,"REV_AT_EPOCH":3246,"BSTAR":0.0010257,"MEAN_MOTION_DOT":0.00028085,"MEAN_MOTION_DDOT":0},{"OBJECT_NAME":"STARLINK-32757","OBJECT_ID":"2025-003F","EPOCH":"2025-07-29T02:19:29.922240","MEAN_MOTION":15.2759855,"ECCENTRICITY":0.0001575,"INCLINATION":43.0049,"RA_OF_ASC_NODE":111.9043,"ARG_OF_PERICENTER":287.7976,"MEAN_ANOMALY":72.2703,"EPHEMERIS_TYPE":0,"CLASSIFICATION_TYPE":"U","NORAD_CAT_ID":62492,"ELEMENT_SET_NO":999,"REV_AT_EPOCH":3235,"BSTAR":0.0010451,"MEAN_MOTION_DOT":0.00028625,"MEAN_MOTION_DDOT":0},{"OBJECT_NAME":"STARLINK-32731","OBJECT_ID":"2025-003G","EPOCH":"2025-07-29T10:28:47.538912","MEAN_MOTION":15.27581465,"ECCENTRICITY":9.98e-5,"INCLINATION":42.9978,"RA_OF_ASC_NODE":110.1587,"ARG_OF_PERICENTER":286.3042,"MEAN_ANOMALY":73.77,"EPHEMERIS_TYPE":0,"CLASSIFICATION_TYPE":"U","NORAD_CAT_ID":62493,"ELEMENT_SET_NO":999,"REV_AT_EPOCH":3252,"BSTAR":0.00033964,"MEAN_MOTION_DOT":9.096e-5,"MEAN_MOTION_DDOT":0},{"OBJECT_NAME":"STARLINK-32694","OBJECT_ID":"2025-003H","EPOCH":"2025-07-28T23:53:32.310240","MEAN_MOTION":15.27591437,"ECCENTRICITY":0.0001226,"INCLINATION":43.0018,"RA_OF_ASC_NODE":112.0013,"ARG_OF_PERICENTER":302.3425,"MEAN_ANOMALY":57.7308,"EPHEMERIS_TYPE":0,"CLASSIFICATION_TYPE":"U","NORAD_CAT_ID":62494,"ELEMENT_SET_NO":999,"REV_AT_EPOCH":3246,"BSTAR":0.00071827,"MEAN_MOTION_DOT":0.00019562,"MEAN_MOTION_DDOT":0},{"OBJECT_NAME":"STARLINK-32708","OBJECT_ID":"2025-003J","EPOCH":"2025-07-29T10:04:44.124096","MEAN_MOTION":15.27588512,"ECCENTRICITY":0.0001339,"INCLINATION":43.0049,"RA_OF_ASC_NODE":110.0267,"ARG_OF_PERICENTER":284.0784,"MEAN_ANOMALY":75.9919,"EPHEMERIS_TYPE":0,"CLASSIFICATION_TYPE":"U","NORAD_CAT_ID":62495,"ELEMENT_SET_NO":999,"REV_AT_EPOCH":3240,"BSTAR":0.001038,"MEAN_MOTION_DOT":0.00028419,"MEAN_MOTION_DDOT":0},{"OBJECT_NAME":"STARLINK-32718","OBJECT_ID":"2025-003K","EPOCH":"2025-07-29T10:47:04.665984","MEAN_MOTION":15.27584643,"ECCENTRICITY":0.0001576,"INCLINATION":43.0032,"RA_OF_ASC_NODE":109.3871,"ARG_OF_PERICENTER":267.4624,"MEAN_ANOMALY":92.6048,"EPHEMERIS_TYPE":0,"CLASSIFICATION_TYPE":"U","NORAD_CAT_ID":62496,"ELEMENT_SET_NO":999,"REV_AT_EPOCH":3241,"BSTAR":0.00092662,"MEAN_MOTION_DOT":0.00025328,"MEAN_MOTION_DDOT":0},{"OBJECT_NAME":"STARLINK-32729","OBJECT_ID":"2025-003L","EPOCH":"2025-07-29T01:33:14.241024","MEAN_MOTION":15.27595576,"ECCENTRICITY":0.0001566,"INCLINATION":43.0003,"RA_OF_ASC_NODE":111.6547,"ARG_OF_PERICENTER":267.1435,"MEAN_ANOMALY":92.9237,"EPHEMERIS_TYPE":0,"CLASSIFICATION_TYPE":"U","NORAD_CAT_ID":62497,"ELEMENT_SET_NO":999,"REV_AT_EPOCH":3247,"BSTAR":0.00087775,"MEAN_MOTION_DOT":0.00023982,"MEAN_MOTION_DDOT":0},{"OBJECT_NAME":"STARLINK-32739","OBJECT_ID":"2025-003M","EPOCH":"2025-07-29T09:46:12.329760","MEAN_MOTION":15.27580356,"ECCENTRICITY":0.0001062,"INCLINATION":42.999,"RA_OF_ASC_NODE":109.9252,"ARG_OF_PERICENTER":285.1868,"MEAN_ANOMALY":74.8866,"EPHEMERIS_TYPE":0,"CLASSIFICATION_TYPE":"U","NORAD_CAT_ID":62498,"ELEMENT_SET_NO":999,"REV_AT_EPOCH":3247,"BSTAR":0.0011996,"MEAN_MOTION_DOT":0.00032896,"MEAN_MOTION_DDOT":0},{"OBJECT_NAME":"STARLINK-32714","OBJECT_ID":"2025-003N","EPOCH":"2025-07-29T10:26:55.959360","MEAN_MOTION":15.2759415,"ECCENTRICITY":0.0001463,"INCLINATION":43.0009,"RA_OF_ASC_NODE":110.1469,"ARG_OF_PERICENTER":266.3926,"MEAN_ANOMALY":93.6758,"EPHEMERIS_TYPE":0,"CLASSIFICATION_TYPE":"U","NORAD_CAT_ID":62499,"ELEMENT_SET_NO":999,"REV_AT_EPOCH":3252,"BSTAR":0.0010005,"MEAN_MOTION_DOT":0.00027384,"MEAN_MOTION_DDOT":0},{"OBJECT_NAME":"STARLINK-32685","OBJECT_ID":"2025-003P","EPOCH":"2025-07-29T02:25:03.186912","MEAN_MOTION":15.27591674,"ECCENTRICITY":0.0001371,"INCLINATION":43.002,"RA_OF_ASC_NODE":111.9351,"ARG_OF_PERICENTER":278.9652,"MEAN_ANOMALY":81.1044,"EPHEMERIS_TYPE":0,"CLASSIFICATION_TYPE":"U","NORAD_CAT_ID":62500,"ELEMENT_SET_NO":999,"REV_AT_EPOCH":3242,"BSTAR":0.00067376,"MEAN_MOTION_DOT":0.00018331,"MEAN_MOTION_DDOT":0},{"OBJECT_NAME":"STARLINK-32691","OBJECT_ID":"2025-003Q","EPOCH":"2025-07-29T09:44:21.598656","MEAN_MOTION":15.27560777,"ECCENTRICITY":0.0001535,"INCLINATION":42.9985,"RA_OF_ASC_NODE":109.9133,"ARG_OF_PERICENTER":275.4257,"MEAN_ANOMALY":84.6419,"EPHEMERIS_TYPE":0,"CLASSIFICATION_TYPE":"U","NORAD_CAT_ID":62501,"ELEMENT_SET_NO":999,"REV_AT_EPOCH":3251,"BSTAR":0.00048273,"MEAN_MOTION_DOT":0.00013037,"MEAN_MOTION_DDOT":0},{"OBJECT_NAME":"STARLINK-32788","OBJECT_ID":"2025-003R","EPOCH":"2025-07-29T00:13:53.215680","MEAN_MOTION":15.27581599,"ECCENTRICITY":0.0001358,"INCLINATION":42.9995,"RA_OF_ASC_NODE":112.1044,"ARG_OF_PERICENTER":267.702,"MEAN_ANOMALY":92.3676,"EPHEMERIS_TYPE":0,"CLASSIFICATION_TYPE":"U","NORAD_CAT_ID":62502,"ELEMENT_SET_NO":999,"REV_AT_EPOCH":3234,"BSTAR":0.0011005,"MEAN_MOTION_DOT":0.00030147,"MEAN_MOTION_DDOT":0},{"OBJECT_NAME":"STARLINK-32768","OBJECT_ID":"2025-003S","EPOCH":"2025-07-29T10:48:54.889920","MEAN_MOTION":15.27609613,"ECCENTRICITY":0.0003386,"INCLINATION":43.0017,"RA_OF_ASC_NODE":109.3898,"ARG_OF_PERICENTER":264.5661,"MEAN_ANOMALY":95.4804,"EPHEMERIS_TYPE":0,"CLASSIFICATION_TYPE":"U","NORAD_CAT_ID":62503,"ELEMENT_SET_NO":999,"REV_AT_EPOCH":3241,"BSTAR":0.00085948,"MEAN_MOTION_DOT":0.00023488,"MEAN_MOTION_DDOT":0}]
